CCSDS_OMM_VERS,COMMENT,CREATION_DATE,ORIGINATOR,OBJECT_NAME,OBJECT_ID,CENTER_NAME,REF_FRAME,TIME_SYSTEM,MEAN_ELEMENT_THEORY,EPOCH,MEAN_MOTION,ECCENTRICITY,INCLINATION,RA_OF_ASC_NODE,ARG_OF_PERICENTER,MEAN_ANOMALY,EPHEMERIS_TYPE,CLASSIFICATION_TYPE,NORAD_CAT_ID,ELEMENT_SET_NO,REV_AT_EPOCH,BSTAR,MEAN_MOTION_DOT,MEAN_MOTION_DDOT,SEMIMAJOR_AXIS,PERIOD,APOAPSIS,PERIAPSIS,OBJECT_TYPE,RCS_SIZE,COUNTRY_CODE,LAUNCH_DATE,SITE,DECAY_DATE,FILE,GP_ID,TLE_LINE0,TLE_LINE1,TLE_LINE2
2,GENERATED VIA SPACE-TRACK.ORG API,2020-02-07T14:40:16,18 SPCS,JCSAT 2,1990-001B,EARTH,TEME,UTC,SGP4,2020-02-07T09:03:42.741792,0.98538335,0.0063434,14.1062,30.1242,270.0868,280.1074,0,U,20402,999,9243,0.0,-1.63e-06,0,42657.79,1461.36,36550.251,36009.06,PAYLOAD,LARGE,JPN,1990-01-01,AFETR,,2696635,148222464,0 JCSAT 2,1 20402U 90001B   20038.37757803 -.00000163  00000-0  00000+0 0  9991,2 20402  14.1062  30.1242 0063434 270.0868 280.1074  0.98538335 92431
2,GENERATED VIA SPACE-TRACK.ORG API,2020-02-09T17:08:44,18 SPCS,JCSAT 2,1990-001B,EARTH,TEME,UTC,SGP4,2020-02-08T21:37:13.653408,0.9853779,0.0063422,14.1077,30.1103,270.1478,100.4271,0,U,20402,999,9247,0.0,-1.32e-06,0,42657.948,1461.368,36550.358,36009.267,PAYLOAD,LARGE,JPN,1990-01-01,AFETR,,2697702,148369493,0 JCSAT 2,1 20402U 90001B   20039.90085247 -.00000132 +00000-0 +00000-0 0  9994,2 20402 014.1077 030.1103 0063422 270.1478 100.4271 00.98537790092479
2,GENERATED VIA SPACE-TRACK.ORG API,2020-02-09T14:40:17,18 SPCS,JCSAT 2,1990-001B,EARTH,TEME,UTC,SGP4,2020-02-09T09:39:34.341120,0.98537652,0.0063407,14.1081,30.1057,270.1718,278.3564,0,U,20402,999,9245,0.0,-1.22e-06,0,42657.988,1461.37,36550.334,36009.371,PAYLOAD,LARGE,JPN,1990-01-01,AFETR,,2697629,148362442,0 JCSAT 2,1 20402U 90001B   20040.40248080 -.00000122  00000-0  00000+0 0  9995,2 20402  14.1081  30.1057 0063407 270.1718 278.3564  0.98537652 92457
2,GENERATED VIA SPACE-TRACK.ORG API,2020-02-10T17:07:23,18 SPCS,JCSAT 2,1990-001B,EARTH,TEME,UTC,SGP4,2020-02-09T21:42:38.405952,0.98537462,0.0063413,14.1086,30.1011,270.1818,96.4751,0,U,20402,999,9248,0.0,-1.11e-06,0,42658.042,1461.373,36550.415,36009.4,PAYLOAD,LARGE,JPN,1990-01-01,AFETR,,2698073,148456226,0 JCSAT 2,1 20402U 90001B   20040.90461118 -.00000111 +00000-0 +00000-0 0  9998,2 20402 014.1086 030.1011 0063413 270.1818 096.4751 00.98537462092489
2,GENERATED VIA SPACE-TRACK.ORG API,2020-02-11T14:40:16,18 SPCS,JCSAT 2,1990-001B,EARTH,TEME,UTC,SGP4,2020-02-11T09:50:25.920672,0.9853699,0.0063393,14.11,30.0873,270.271,270.4249,0,U,20402,999,9247,0.0,-7.9e-07,0,42658.179,1461.38,36550.467,36009.621,PAYLOAD,LARGE,JPN,1990-01-01,AFETR,,2698604,148540591,0 JCSAT 2,1 20402U 90001B   20042.41002223 -.00000079  00000-0  00000+0 0  9996,2 20402  14.1100  30.0873 0063393 270.2710 270.4249  0.98536990 92470
2,GENERATED VIA SPACE-TRACK.ORG API,2020-02-12T17:52:07,18 SPCS,JCSAT 2,1990-001B,EARTH,TEME,UTC,SGP4,2020-02-11T21:53:29.987232,0.98536856,0.0063393,14.1105,30.0827,270.2883,88.5362,0,U,20402,999,9249,0.0,-6.9e-07,0,42658.217,1461.382,36550.506,36009.659,PAYLOAD,LARGE,JPN,1990-01-01,AFETR,,2699177,148597579,0 JCSAT 2,1 20402U 90001B   20042.91215263 -.00000069 +00000-0 +00000-0 0  9991,2 20402 014.1105 030.0827 0063393 270.2883 088.5362 00.98536856092492
2,GENERATED VIA SPACE-TRACK.ORG API,2020-02-13T02:10:40,18 SPCS,JCSAT 2,1990-001B,EARTH,TEME,UTC,SGP4,2020-02-12T09:55:51.771360,0.98536761,0.0063387,14.111,30.0782,270.3281,266.4522,0,U,20402,999,9250,0.0,-6e-07,0,42658.245,1461.383,36550.508,36009.712,PAYLOAD,LARGE,JPN,1990-01-01,AFETR,,2699474,148623499,0 JCSAT 2,1 20402U 90001B   20043.41379365 -.00000060 +00000-0 +00000-0 0  9992,2 20402 014.1110 030.0782 0063387 270.3281 266.4522 00.98536761092506
2,GENERATED VIA SPACE-TRACK.ORG API,2020-02-13T16:26:02,18 SPCS,JCSAT 2,1990-001B,EARTH,TEME,UTC,SGP4,2020-02-12T21:58:56.299296,0.98536646,0.0063383,14.1114,30.0736,270.355,84.555,0,U,20402,999,9250,0.0,-5.1e-07,0,42658.278,1461.385,36550.524,36009.762,PAYLOAD,LARGE,JPN,1990-01-01,AFETR,,2700234,148661868,0 JCSAT 2,1 20402U 90001B   20043.91592939 -.00000051 +00000-0 +00000-0 0  9991,2 20402 014.1114 030.0736 0063383 270.3550 084.5550 00.98536646092506
2,GENERATED VIA SPACE-TRACK.ORG API,2020-02-16T06:50:20,18 SPCS,JCSAT 2,1990-001B,EARTH,TEME,UTC,SGP4,2020-02-15T23:58:17.129568,0.98536349,0.0063377,14.1144,30.0456,270.5242,98.0189,0,U,20402,999,9252,0.0,-1.3e-07,0,42658.364,1461.389,36550.585,36009.873,PAYLOAD,LARGE,JPN,1990-01-01,AFETR,,2702949,148853682,0 JCSAT 2,1 20402U 90001B   20046.99880937 -.00000013  00000-0  00000+0 0  9997,2 20402  14.1144  30.0456 0063377 270.5242  98.0189  0.98536349 92521
2,GENERATED VIA SPACE-TRACK.ORG API,2020-02-16T18:14:09,18 SPCS,JCSAT 2,1990-001B,EARTH,TEME,UTC,SGP4,2020-02-16T12:00:35.959680,0.98536394,0.0063372,14.1149,30.041,270.567,275.9193,0,U,20402,999,9254,0.0,-1.1e-07,0,42658.351,1461.388,36550.55,36009.881,PAYLOAD,LARGE,JPN,1990-01-01,AFETR,,2703310,148866920,0 JCSAT 2,1 20402U 90001B   20047.50041620 -.00000011 +00000-0 +00000-0 0  9992,2 20402 014.1149 030.0410 0063372 270.5670 275.9193 00.98536394092549
2,GENERATED VIA SPACE-TRACK.ORG API,2020-02-17T20:24:49,18 SPCS,JCSAT 2,1990-001B,EARTH,TEME,UTC,SGP4,2020-02-17T00:03:38.153952,0.98536428,0.0063365,14.1153,30.0365,270.5955,94.0107,0,U,20402,999,9255,0.0,-9e-08,0,42658.341,1461.388,36550.51,36009.901,PAYLOAD,LARGE,JPN,1990-01-01,AFETR,,2704250,148926635,0 JCSAT 2,1 20402U 90001B   20048.00252493 -.00000009 +00000-0 +00000-0 0  9997,2 20402 014.1153 030.0365 0063365 270.5955 094.0107 00.98536428092555
2,GENERATED VIA SPACE-TRACK.ORG API,2020-02-18T02:23:46,18 SPCS,JCSAT 2,1990-001B,EARTH,TEME,UTC,SGP4,2020-02-17T12:05:56.984928,0.98536491,0.006336,14.1158,30.0319,270.6391,271.9094,0,U,20402,999,9255,0.0,-9e-08,0,42658.323,1461.387,36550.471,36009.904,PAYLOAD,LARGE,JPN,1990-01-01,AFETR,,2704550,148971967,0 JCSAT 2,1 20402U 90001B   20048.50413177 -.00000009 +00000-0 +00000-0 0  9990,2 20402 014.1158 030.0319 0063360 270.6391 271.9094 00.98536491092550
2,GENERATED VIA SPACE-TRACK.ORG API,2020-02-19T18:10:11,18 SPCS,JCSAT 2,1990-001B,EARTH,TEME,UTC,SGP4,2020-02-19T12:16:51.610080,0.98536833,0.0063321,14.1177,30.0137,270.788,263.9354,0,U,20402,999,9257,0.0,-2e-07,0,42658.224,1461.382,36550.205,36009.973,PAYLOAD,LARGE,JPN,1990-01-01,AFETR,,2706317,149088703,0 JCSAT 2,1 20402U 90001B   20050.51170845 -.00000020 +00000-0 +00000-0 0  9999,2 20402 014.1177 030.0137 0063321 270.7880 263.9354 00.98536833092572
2,GENERATED VIA SPACE-TRACK.ORG API,2020-02-19T22:36:17,18 SPCS,JCSAT 2,1990-001B,EARTH,TEME,UTC,SGP4,2020-02-19T12:16:51.610080,0.98536833,0.0063321,14.1177,30.0137,270.788,263.9354,0,U,20402,999,9255,0.0,-2e-07,0,42658.224,1461.382,36550.205,36009.973,PAYLOAD,LARGE,JPN,1990-01-01,AFETR,,2706375,149104786,0 JCSAT 2,1 20402U 90001B   20050.51170845 -.00000020  00000-0  00000+0 0  9998,2 20402  14.1177  30.0137 0063321 270.7880 263.9354  0.98536833 92550
2,GENERATED VIA SPACE-TRACK.ORG API,2020-02-21T18:27:12,18 SPCS,JCSAT 2,1990-001B,EARTH,TEME,UTC,SGP4,2020-02-21T13:34:05.502144,0.98537515,0.0063273,14.1197,29.9953,270.9264,272.3168,0,U,20402,999,9259,0.0,-5e-07,0,42658.027,1461.372,36549.802,36009.982,PAYLOAD,LARGE,JPN,1990-01-01,AFETR,,2707433,149231163,0 JCSAT 2,1 20402U 90001B   20052.56534146 -.00000050 +00000-0 +00000-0 0  9997,2 20402 014.1197 029.9953 0063273 270.9264 272.3168 00.98537515092598
2,GENERATED VIA SPACE-TRACK.ORG API,2020-02-21T22:36:18,18 SPCS,JCSAT 2,1990-001B,EARTH,TEME,UTC,SGP4,2020-02-21T13:34:05.502144,0.98537515,0.0063273,14.1197,29.9953,270.9264,272.3168,0,U,20402,999,9257,0.0,-5e-07,0,42658.027,1461.372,36549.802,36009.982,PAYLOAD,LARGE,JPN,1990-01-01,AFETR,,2707553,149247796,0 JCSAT 2,1 20402U 90001B   20052.56534146 -.00000050  00000-0  00000+0 0  9996,2 20402  14.1197  29.9953 0063273 270.9264 272.3168  0.98537515 92576
2,GENERATED VIA SPACE-TRACK.ORG API,2020-02-22T17:39:40,18 SPCS,JCSAT 2,1990-001B,EARTH,TEME,UTC,SGP4,2020-02-22T12:41:49.938144,0.9853782,0.0063234,14.1206,29.9867,271.0021,254.112,0,U,20402,999,9260,0.0,-6.9e-07,0,42657.939,1461.367,36549.547,36010.061,PAYLOAD,LARGE,JPN,1990-01-01,AFETR,,2708018,149282527,0 JCSAT 2,1 20402U 90001B   20053.52905021 -.00000069 +00000-0 +00000-0 0  9998,2 20402 014.1206 029.9867 0063234 271.0021 254.1120 00.98537820092600
2,GENERATED VIA SPACE-TRACK.ORG API,2020-02-23T02:08:14,18 SPCS,JCSAT 2,1990-001B,EARTH,TEME,UTC,SGP4,2020-02-22T14:16:07.703904,0.98537868,0.0063234,14.1207,29.9861,271.0046,277.3406,0,U,20402,999,9260,0.0,-7e-07,0,42657.925,1461.367,36549.533,36010.047,PAYLOAD,LARGE,JPN,1990-01-01,AFETR,,2708216,149306097,0 JCSAT 2,1 20402U 90001B   20053.59453361 -.00000070 +00000-0 +00000-0 0  9992,2 20402 014.1207 029.9861 0063234 271.0046 277.3406 00.98537868092608
2,GENERATED VIA SPACE-TRACK.ORG API,2020-02-23T19:25:00,18 SPCS,JCSAT 2,1990-001B,EARTH,TEME,UTC,SGP4,2020-02-23T02:19:12.096192,0.98538061,0.006321,14.1212,29.9816,271.0412,95.4352,0,U,20402,999,9261,0.0,-8.2e-07,0,42657.87,1461.364,36549.375,36010.094,PAYLOAD,LARGE,JPN,1990-01-01,AFETR,,2708573,149333870,0 JCSAT 2,1 20402U 90001B   20054.09666778 -.00000082 +00000-0 +00000-0 0  9999,2 20402 014.1212 029.9816 0063210 271.0412 095.4352 00.98538061092611
2,GENERATED VIA SPACE-TRACK.ORG API,2020-02-23T22:36:18,18 SPCS,JCSAT 2,1990-001B,EARTH,TEME,UTC,SGP4,2020-02-23T14:21:30.909024,0.98538292,0.0063194,14.1217,29.9771,271.0755,273.3466,0,U,20402,999,9259,0.0,-9.3e-07,0,42657.803,1461.36,36549.24,36010.096,PAYLOAD,LARGE,JPN,1990-01-01,AFETR,,2708680,149370329,0 JCSAT 2,1 20402U 90001B   20054.59827441 -.00000093  00000-0  00000+0 0  9991,2 20402  14.1217  29.9771 0063194 271.0755 273.3466  0.98538292 92593
